start=new Date('2023-02-14T00:00:00.000Z').valueOf();
sats=[{"GP_ID":"225321027","TLE_LINE1":"1 46345U 20062W   23044.59221823  .00000468  00000-0  50345-4 0  9996","SEMIMAJOR_AXIS":"6925.376","CENTER_NAME":"EARTH","EPHEMERIS_TYPE":"0","MEAN_ANOMALY":"264.0790","OBJECT_ID":"2020-062W","INCLINATION":"53.0549","APOAPSIS":"548.454","REV_AT_EPOCH":"13548","EPOCH":"2023-02-13T14:12:47.655072","REF_FRAME":"TEME","NORAD_CAT_ID":"46345","BSTAR":"0.00005034500000","ECCENTRICITY":"0.00017510","RA_OF_ASC_NODE":"4.9290","FILE":"3789366","SITE":"AFETR","OBJECT_TYPE":"PAYLOAD","LAUNCH_DATE":"2020-09-03","MEAN_MOTION":"15.06391024","RCS_SIZE":"LARGE","MEAN_MOTION_DDOT":"0.0000000000000","COUNTRY_CODE":"US","TIME_SYSTEM":"UTC","PERIAPSIS":"546.028","MEAN_ELEMENT_THEORY":"SGP4","CLASSIFICATION_TYPE":"U","DECAY_DATE":null,"MEAN_MOTION_DOT":"0.00000468","ELEMENT_SET_NO":"999","OBJECT_NAME":"STARLINK-1767","PERIOD":"95.593","ARG_OF_PERICENTER":"96.0398","TLE_LINE2":"2 46345  53.0549   4.9290 0001751  96.0398 264.0790 15.06391024135483"},{"FILE":"3789426","SITE":"AFETR","RCS_SIZE":"LARGE","MEAN_MOTION":"15.40132849","MEAN_MOTION_DDOT":"0.0000000000000","OBJECT_TYPE":"PAYLOAD","LAUNCH_DATE":"2020-09-03","ECCENTRICITY":"0.00038340","BSTAR":"0.00147390000000","RA_OF_ASC_NODE":"159.4899","OBJECT_NAME":"STARLINK-1546","MEAN_MOTION_DOT":"0.00060045","ELEMENT_SET_NO":"999","TLE_LINE2":"2 46346  53.0577 159.4899 0003834 186.9711 173.1240 15.40132849138577","PERIOD":"93.498","ARG_OF_PERICENTER":"186.9711","PERIAPSIS":"443.103","MEAN_ELEMENT_THEORY":"SGP4","CLASSIFICATION_TYPE":"U","TIME_SYSTEM":"UTC","COUNTRY_CODE":"US","DECAY_DATE":null,"SEMIMAJOR_AXIS":"6823.854","CENTER_NAME":"EARTH","GP_ID":"225329164","TLE_LINE1":"1 46346U 20062X   23044.60670491  .00060045  00000-0  14739-2 0  9990","MEAN_ANOMALY":"173.1240","EPHEMERIS_TYPE":"0","EPOCH":"2023-02-13T14:33:39.304224","REV_AT_EPOCH":"13857","APOAPSIS":"448.335","NORAD_CAT_ID":"46346","REF_FRAME":"TEME","OBJECT_ID":"2020-062X","INCLINATION":"53.0577"},{"CLASSIFICATION_TYPE":"U","MEAN_ELEMENT_THEORY":"SGP4","PERIAPSIS":"545.924","COUNTRY_CODE":"US","TIME_SYSTEM":"UTC","DECAY_DATE":null,"OBJECT_NAME":"STARLINK-1547","ELEMENT_SET_NO":"999","MEAN_MOTION_DOT":"0.00004442","TLE_LINE2":"2 46347  53.0525 320.4239 0001898  79.1310 280.9893 15.06391947136088","ARG_OF_PERICENTER":"79.1310","PERIOD":"95.593","ECCENTRICITY":"0.00018980","BSTAR":"0.00031697000000","RA_OF_ASC_NODE":"320.4239","FILE":"3789366","SITE":"AFETR","RCS_SIZE":"LARGE","MEAN_MOTION":"15.06391947","MEAN_MOTION_DDOT":"0.0000000000000","OBJECT_TYPE":"PAYLOAD","LAUNCH_DATE":"2020-09-03","INCLINATION":"53.0525","OBJECT_ID":"2020-062Y","EPOCH":"2023-02-13T11:38:14.770752","REV_AT_EPOCH":"13608","APOAPSIS":"548.553","NORAD_CAT_ID":"46347","REF_FRAME":"TEME","SEMIMAJOR_AXIS":"6925.373","CENTER_NAME":"EARTH","TLE_LINE1":"1 46347U 20062Y   23044.48489318  .00004442  00000-0  31697-3 0  9995","GP_ID":"225322005","MEAN_ANOMALY":"280.9893","EPHEMERIS_TYPE":"0"},{"EPHEMERIS_TYPE":"0","MEAN_ANOMALY":"255.2841","GP_ID":"225338672","TLE_LINE1":"1 46348U 20062Z   23044.52866638  .00012063  00000-0  82749-3 0  9997","SEMIMAJOR_AXIS":"6925.371","CENTER_NAME":"EARTH","OBJECT_ID":"2020-062Z","INCLINATION":"53.0557","REF_FRAME":"TEME","NORAD_CAT_ID":"46348","REV_AT_EPOCH":"13593","APOAPSIS":"548.424","EPOCH":"2023-02-13T12:41:16.775232","RA_OF_ASC_NODE":"345.2209","BSTAR":"0.00082749000000","ECCENTRICITY":"0.00017150","OBJECT_TYPE":"PAYLOAD","LAUNCH_DATE":"2020-09-03","MEAN_MOTION_DDOT":"0.0000000000000","RCS_SIZE":"LARGE","MEAN_MOTION":"15.06392583","FILE":"3789798","SITE":"AFETR","DECAY_DATE":null,"TIME_SYSTEM":"UTC","COUNTRY_CODE":"US","PERIAPSIS":"546.049","MEAN_ELEMENT_THEORY":"SGP4","CLASSIFICATION_TYPE":"U","PERIOD":"95.593","ARG_OF_PERICENTER":"104.8338","TLE_LINE2":"2 46348  53.0557 345.2209 0001715 104.8338 255.2841 15.06392583135938","ELEMENT_SET_NO":"999","MEAN_MOTION_DOT":"0.00012063","OBJECT_NAME":"STARLINK-1553"},{"MEAN_ANOMALY":"276.2177","EPHEMERIS_TYPE":"0","CENTER_NAME":"EARTH","SEMIMAJOR_AXIS":"6925.391","TLE_LINE1":"1 46349U 20062AA  23044.45909293  .00006427  00000-0  45012-3 0  9994","GP_ID":"225321527","OBJECT_ID":"2020-062AA","INCLINATION":"53.0539","NORAD_CAT_ID":"46349","REF_FRAME":"TEME","EPOCH":"2023-02-13T11:01:05.629152","REV_AT_EPOCH":"13609","APOAPSIS":"548.255","RA_OF_ASC_NODE":"320.5307","ECCENTRICITY":"0.00014420","BSTAR":"0.00045012000000","RCS_SIZE":"LARGE","MEAN_MOTION_DDOT":"0.0000000000000","MEAN_MOTION":"15.06386192","LAUNCH_DATE":"2020-09-03","OBJECT_TYPE":"PAYLOAD","FILE":"3789366","SITE":"AFETR","DECAY_DATE":null,"CLASSIFICATION_TYPE":"U","MEAN_ELEMENT_THEORY":"SGP4","PERIAPSIS":"546.257","TIME_SYSTEM":"UTC","COUNTRY_CODE":"US","TLE_LINE2":"2 46349  53.0539 320.5307 0001442  83.8977 276.2177 15.06386192136098","ARG_OF_PERICENTER":"83.8977","PERIOD":"95.593","OBJECT_NAME":"STARLINK-1575","ELEMENT_SET_NO":"999","MEAN_MOTION_DOT":"0.00006427"},{"SITE":"AFETR","FILE":"3789458","RCS_SIZE":"LARGE","MEAN_MOTION_DDOT":"0.0000000000000","MEAN_MOTION":"15.06393675","LAUNCH_DATE":"2020-09-03","OBJECT_TYPE":"PAYLOAD","ECCENTRICITY":"0.00019410","BSTAR":"0.00065856000000","RA_OF_ASC_NODE":"4.7932","OBJECT_NAME":"STARLINK-1617","ELEMENT_SET_NO":"999","MEAN_MOTION_DOT":"0.00009540","TLE_LINE2":"2 46350  53.0545   4.7932 0001941  78.3386 281.7821 15.06393675135673","ARG_OF_PERICENTER":"78.3386","PERIOD":"95.593","CLASSIFICATION_TYPE":"U","PERIAPSIS":"545.889","MEAN_ELEMENT_THEORY":"SGP4","COUNTRY_CODE":"US","TIME_SYSTEM":"UTC","DECAY_DATE":null,"SEMIMAJOR_AXIS":"6925.368","CENTER_NAME":"EARTH","TLE_LINE1":"1 46350U 20062AB  23044.62265416  .00009540  00000-0  65856-3 0  9994","GP_ID":"225330135","MEAN_ANOMALY":"281.7821","EPHEMERIS_TYPE":"0","EPOCH":"2023-02-13T14:56:37.319424","APOAPSIS":"548.577","REV_AT_EPOCH":"13567","NORAD_CAT_ID":"46350","REF_FRAME":"TEME","INCLINATION":"53.0545","OBJECT_ID":"2020-062AB"},{"OBJECT_ID":"2020-062AC","INCLINATION":"53.0555","REF_FRAME":"TEME","NORAD_CAT_ID":"46351","APOAPSIS":"548.544","REV_AT_EPOCH":"13594","EPOCH":"2023-02-13T13:27:41.099904","EPHEMERIS_TYPE":"0","MEAN_ANOMALY":"276.9231","TLE_LINE1":"1 46351U 20062AC  23044.56089236  .00017785  00000-0  12103-2 0  9998","GP_ID":"225330136","SEMIMAJOR_AXIS":"6925.388","CENTER_NAME":"EARTH","DECAY_DATE":null,"COUNTRY_CODE":"US","TIME_SYSTEM":"UTC","CLASSIFICATION_TYPE":"U","PERIAPSIS":"545.963","MEAN_ELEMENT_THEORY":"SGP4","ARG_OF_PERICENTER":"83.1970","PERIOD":"95.593","TLE_LINE2":"2 46351  53.0555 345.0575 0001863  83.1970 276.9231 15.06386977135943","ELEMENT_SET_NO":"999","MEAN_MOTION_DOT":"0.00017785","OBJECT_NAME":"STARLINK-1646","RA_OF_ASC_NODE":"345.0575","BSTAR":"0.00121030000000","ECCENTRICITY":"0.00018630","OBJECT_TYPE":"PAYLOAD","LAUNCH_DATE":"2020-09-03","RCS_SIZE":"LARGE","MEAN_MOTION":"15.06386977","MEAN_MOTION_DDOT":"0.0000000000000","SITE":"AFETR","FILE":"3789458"},{"INCLINATION":"53.0539","OBJECT_ID":"2020-062AD","EPOCH":"2023-02-13T13:02:30.477120","REV_AT_EPOCH":"13576","APOAPSIS":"548.623","NORAD_CAT_ID":"46352","REF_FRAME":"TEME","SEMIMAJOR_AXIS":"6925.385","CENTER_NAME":"EARTH","GP_ID":"225320778","TLE_LINE1":"1 46352U 20062AD  23044.54340830  .00004006  00000-0  28775-3 0  9992","MEAN_ANOMALY":"269.3943","EPHEMERIS_TYPE":"0","PERIAPSIS":"545.877","MEAN_ELEMENT_THEORY":"SGP4","CLASSIFICATION_TYPE":"U","TIME_SYSTEM":"UTC","COUNTRY_CODE":"US","DECAY_DATE":null,"OBJECT_NAME":"STARLINK-1653","MEAN_MOTION_DOT":"0.00004006","ELEMENT_SET_NO":"999","TLE_LINE2":"2 46352  53.0539 345.1569 0001983  90.7274 269.3943 15.06388066135761","PERIOD":"95.593","ARG_OF_PERICENTER":"90.7274","ECCENTRICITY":"0.00019830","BSTAR":"0.00028775000000","RA_OF_ASC_NODE":"345.1569","SITE":"AFETR","FILE":"3789366","RCS_SIZE":"LARGE","MEAN_MOTION_DDOT":"0.0000000000000","MEAN_MOTION":"15.06388066","OBJECT_TYPE":"PAYLOAD","LAUNCH_DATE":"2020-09-03"},{"ECCENTRICITY":"0.00011170","BSTAR":"0.00059986000000","RA_OF_ASC_NODE":"4.8679","SITE":"AFETR","FILE":"3789488","MEAN_MOTION_DDOT":"0.0000000000000","RCS_SIZE":"LARGE","MEAN_MOTION":"15.06379730","OBJECT_TYPE":"PAYLOAD","LAUNCH_DATE":"2020-09-03","MEAN_ELEMENT_THEORY":"SGP4","PERIAPSIS":"546.502","CLASSIFICATION_TYPE":"U","TIME_SYSTEM":"UTC","COUNTRY_CODE":"US","DECAY_DATE":null,"OBJECT_NAME":"STARLINK-1656","ELEMENT_SET_NO":"999","MEAN_MOTION_DOT":"0.00008660","TLE_LINE2":"2 46353  53.0538   4.8679 0001117  97.4691 262.6424 15.06379730135665","PERIOD":"95.593","ARG_OF_PERICENTER":"97.4691","CENTER_NAME":"EARTH","SEMIMAJOR_AXIS":"6925.411","GP_ID":"225330160","TLE_LINE1":"1 46353U 20062AE  23044.60790764  .00008660  00000-0  59986-3 0  9993","MEAN_ANOMALY":"262.6424","EPHEMERIS_TYPE":"0","OBJECT_ID":"2020-062AE","INCLINATION":"53.0538","EPOCH":"2023-02-13T14:35:23.220096","REV_AT_EPOCH":"13566","APOAPSIS":"548.049","NORAD_CAT_ID":"46353","REF_FRAME":"TEME"},{"OBJECT_ID":"2020-062AF","INCLINATION":"53.0529","APOAPSIS":"548.084","REV_AT_EPOCH":"13567","EPOCH":"2023-02-13T15:55:00.200928","REF_FRAME":"TEME","NORAD_CAT_ID":"46354","GP_ID":"225330308","TLE_LINE1":"1 46354U 20062AF  23044.66319677  .00001108  00000-0  93310-4 0  9990","CENTER_NAME":"EARTH","SEMIMAJOR_AXIS":"6925.375","EPHEMERIS_TYPE":"0","MEAN_ANOMALY":"262.2106","COUNTRY_CODE":"US","TIME_SYSTEM":"UTC","MEAN_ELEMENT_THEORY":"SGP4","PERIAPSIS":"546.395","CLASSIFICATION_TYPE":"U","DECAY_DATE":null,"MEAN_MOTION_DOT":"0.00001108","ELEMENT_SET_NO":"999","OBJECT_NAME":"STARLINK-1657","PERIOD":"95.593","ARG_OF_PERICENTER":"97.9021","TLE_LINE2":"2 46354  53.0529   4.6187 0001219  97.9021 262.2106 15.06391531135670","BSTAR":"0.00009331000000","ECCENTRICITY":"0.00012190","RA_OF_ASC_NODE":"4.6187","SITE":"AFETR","FILE":"3789469","LAUNCH_DATE":"2020-09-03","OBJECT_TYPE":"PAYLOAD","RCS_SIZE":"LARGE","MEAN_MOTION":"15.06391531","MEAN_MOTION_DDOT":"0.0000000000000"}];
